[
  {
    "OBJECT_NAME": "STARLINK-4639",
    "OBJECT_ID": "22125H",
    "EPOCH": "2025-11-11T07:21:19.305216",
    "MEAN_MOTION": 15.50674479,
    "ECCENTRICITY": 0.0003788,
    "INCLINATION": 53.2155,
    "RA_OF_ASC_NODE": 0.9451,
    "ARG_OF_PERICENTER": 18.1945,
    "MEAN_ANOMALY": 341.92,
    "EPHEMERIS_TYPE": 0,
    "CLASSIFICATION_TYPE": "U",
    "NORAD_CAT_ID": 53971,
    "ELEMENT_SET_NO": 999,
    "REV_AT_EPOCH": 17194,
    "BSTAR": 0.0016714000000000002,
    "MEAN_MOTION_DOT": 0.00098346,
    "MEAN_MOTION_DDOT": 0.0,
    "TLE_LINE1": "1 53971U 22125H   25315.30647344  .00098346  00000+0  16714-2 0  9994",
    "TLE_LINE2": "2 53971  53.2155   0.9451 0003788  18.1945 341.9200 15.50674479171940",
    "COMMENT": "Grouped by shell and plane from TLE"
  },
  {
    "OBJECT_NAME": "STARLINK-30559",
    "OBJECT_ID": "23156M",
    "EPOCH": "2025-11-11T03:27:54.914112",
    "MEAN_MOTION": 15.26055925,
    "ECCENTRICITY": 0.000921,
    "INCLINATION": 53.1694,
    "RA_OF_ASC_NODE": 7.9172,
    "ARG_OF_PERICENTER": 25.9916,
    "MEAN_ANOMALY": 334.1544,
    "EPHEMERIS_TYPE": 0,
    "CLASSIFICATION_TYPE": "U",
    "NORAD_CAT_ID": 58039,
    "ELEMENT_SET_NO": 999,
    "REV_AT_EPOCH": 11675,
    "BSTAR": 0.0035399999999999997,
    "MEAN_MOTION_DOT": 0.00093301,
    "MEAN_MOTION_DDOT": 0.0,
    "TLE_LINE1": "1 58039U 23156M   25315.14438558  .00093301  00000+0  35400-2 0  9995",
    "TLE_LINE2": "2 58039  53.1694   7.9172 0009210  25.9916 334.1544 15.26055925116759",
    "COMMENT": "Grouped by shell and plane from TLE"
  },
  {
    "OBJECT_NAME": "STARLINK-30872",
    "OBJECT_ID": "23170V",
    "EPOCH": "2025-11-11T04:18:01.327392",
    "MEAN_MOTION": 15.27585991,
    "ECCENTRICITY": 0.0002245,
    "INCLINATION": 43.0044,
    "RA_OF_ASC_NODE": 1.5904,
    "ARG_OF_PERICENTER": 290.4123,
    "MEAN_ANOMALY": 69.6488,
    "EPHEMERIS_TYPE": 0,
    "CLASSIFICATION_TYPE": "U",
    "NORAD_CAT_ID": 58225,
    "ELEMENT_SET_NO": 999,
    "REV_AT_EPOCH": 11384,
    "BSTAR": 5.565600000000001e-05,
    "MEAN_MOTION_DOT": 1.27e-05,
    "MEAN_MOTION_DDOT": 0.0,
    "TLE_LINE1": "1 58225U 23170V   25315.17918203  .00001270  00000+0  55656-4 0  9992",
    "TLE_LINE2": "2 58225  43.0044   1.5904 0002245 290.4123  69.6488 15.27585991113842",
    "COMMENT": "Grouped by shell and plane from TLE"
  },
  {
    "OBJECT_NAME": "STARLINK-31090",
    "OBJECT_ID": "23203Y",
    "EPOCH": "2025-11-11T05:32:22.131744",
    "MEAN_MOTION": 15.2757639,
    "ECCENTRICITY": 0.0001063,
    "INCLINATION": 43.0005,
    "RA_OF_ASC_NODE": 8.3917,
    "ARG_OF_PERICENTER": 252.1068,
    "MEAN_ANOMALY": 107.9668,
    "EPHEMERIS_TYPE": 0,
    "CLASSIFICATION_TYPE": "U",
    "NORAD_CAT_ID": 58640,
    "ELEMENT_SET_NO": 999,
    "REV_AT_EPOCH": 10554,
    "BSTAR": 7.9215e-05,
    "MEAN_MOTION_DOT": 1.918e-05,
    "MEAN_MOTION_DDOT": 0.0,
    "TLE_LINE1": "1 58640U 23203Y   25315.23081171  .00001918  00000+0  79215-4 0  9998",
    "TLE_LINE2": "2 58640  43.0005   8.3917 0001063 252.1068 107.9668 15.27576390105546",
    "COMMENT": "Grouped by shell and plane from TLE"
  },
  {
    "OBJECT_NAME": "STARLINK-31312",
    "OBJECT_ID": "24044A",
    "EPOCH": "2025-11-11T05:29:28.111776",
    "MEAN_MOTION": 15.27582563,
    "ECCENTRICITY": 0.0001643,
    "INCLINATION": 42.9998,
    "RA_OF_ASC_NODE": 5.3313,
    "ARG_OF_PERICENTER": 282.3607,
    "MEAN_ANOMALY": 77.7061,
    "EPHEMERIS_TYPE": 0,
    "CLASSIFICATION_TYPE": "U",
    "NORAD_CAT_ID": 59152,
    "ELEMENT_SET_NO": 999,
    "REV_AT_EPOCH": 9606,
    "BSTAR": 0.00036695,
    "MEAN_MOTION_DOT": 9.85e-05,
    "MEAN_MOTION_DDOT": 0.0,
    "TLE_LINE1": "1 59152U 24044A   25315.22879759  .00009850  00000+0  36695-3 0  9994",
    "TLE_LINE2": "2 59152  42.9998   5.3313 0001643 282.3607  77.7061 15.27582563 96065",
    "COMMENT": "Grouped by shell and plane from TLE"
  },
  {
    "OBJECT_NAME": "STARLINK-31308",
    "OBJECT_ID": "24044B",
    "EPOCH": "2025-11-11T04:29:47.711328",
    "MEAN_MOTION": 15.27584264,
    "ECCENTRICITY": 0.0002408,
    "INCLINATION": 43.0045,
    "RA_OF_ASC_NODE": 9.4362,
    "ARG_OF_PERICENTER": 282.2762,
    "MEAN_ANOMALY": 77.782,
    "EPHEMERIS_TYPE": 0,
    "CLASSIFICATION_TYPE": "U",
    "NORAD_CAT_ID": 59153,
    "ELEMENT_SET_NO": 999,
    "REV_AT_EPOCH": 9602,
    "BSTAR": 8.114500000000001e-05,
    "MEAN_MOTION_DOT": 1.971e-05,
    "MEAN_MOTION_DDOT": 0.0,
    "TLE_LINE1": "1 59153U 24044B   25315.18735777  .00001971  00000+0  81145-4 0  9998",
    "TLE_LINE2": "2 59153  43.0045   9.4362 0002408 282.2762  77.7820 15.27584264 96020",
    "COMMENT": "Grouped by shell and plane from TLE"
  },
  {
    "OBJECT_NAME": "STARLINK-31348",
    "OBJECT_ID": "24044W",
    "EPOCH": "2025-11-11T04:31:38.667072",
    "MEAN_MOTION": 15.27604552,
    "ECCENTRICITY": 0.0003351,
    "INCLINATION": 43.001,
    "RA_OF_ASC_NODE": 9.4413,
    "ARG_OF_PERICENTER": 287.9379,
    "MEAN_ANOMALY": 72.1108,
    "EPHEMERIS_TYPE": 0,
    "CLASSIFICATION_TYPE": "U",
    "NORAD_CAT_ID": 59172,
    "ELEMENT_SET_NO": 999,
    "REV_AT_EPOCH": 9598,
    "BSTAR": 0.001443,
    "MEAN_MOTION_DOT": 0.00039694,
    "MEAN_MOTION_DDOT": 0.0,
    "TLE_LINE1": "1 59172U 24044W   25315.18864198  .00039694  00000+0  14430-2 0  9993",
    "TLE_LINE2": "2 59172  43.0010   9.4413 0003351 287.9379  72.1108 15.27604552 95989",
    "COMMENT": "Grouped by shell and plane from TLE"
  },
  {
    "OBJECT_NAME": "STARLINK-31283",
    "OBJECT_ID": "24044Y",
    "EPOCH": "2025-11-11T08:00:03.000384",
    "MEAN_MOTION": 15.27547181,
    "ECCENTRICITY": 0.0001963,
    "INCLINATION": 43.0009,
    "RA_OF_ASC_NODE": 8.5265,
    "ARG_OF_PERICENTER": 271.7446,
    "MEAN_ANOMALY": 207.6578,
    "EPHEMERIS_TYPE": 0,
    "CLASSIFICATION_TYPE": "U",
    "NORAD_CAT_ID": 59174,
    "ELEMENT_SET_NO": 999,
    "REV_AT_EPOCH": 582,
    "BSTAR": 0.00015254,
    "MEAN_MOTION_DOT": 3.934e-05,
    "MEAN_MOTION_DDOT": 0.0,
    "TLE_LINE1": "1 59174U 24044Y   25315.33336806  .00003934  00000+0  15254-3 0  9996",
    "TLE_LINE2": "2 59174  43.0009   8.5265 0001963 271.7446 207.6578 15.27547181  5821",
    "COMMENT": "Grouped by shell and plane from TLE"
  },
  {
    "OBJECT_NAME": "STARLINK-31659",
    "OBJECT_ID": "24050A",
    "EPOCH": "2025-11-11T07:15:59.580288",
    "MEAN_MOTION": 15.30211501,
    "ECCENTRICITY": 0.0001386,
    "INCLINATION": 53.1605,
    "RA_OF_ASC_NODE": 8.7179,
    "ARG_OF_PERICENTER": 95.8577,
    "MEAN_ANOMALY": 264.2581,
    "EPHEMERIS_TYPE": 0,
    "CLASSIFICATION_TYPE": "U",
    "NORAD_CAT_ID": 59254,
    "ELEMENT_SET_NO": 999,
    "REV_AT_EPOCH": 9360,
    "BSTAR": 0.00019249,
    "MEAN_MOTION_DOT": 5.348e-05,
    "MEAN_MOTION_DDOT": 0.0,
    "TLE_LINE1": "1 59254U 24050A   25315.30277292  .00005348  00000+0  19249-3 0  9991",
    "TLE_LINE2": "2 59254  53.1605   8.7179 0001386  95.8577 264.2581 15.30211501 93603",
    "COMMENT": "Grouped by shell and plane from TLE"
  },
  {
    "OBJECT_NAME": "STARLINK-31534",
    "OBJECT_ID": "24064A",
    "EPOCH": "2025-11-11T04:00:43.160544",
    "MEAN_MOTION": 15.27580764,
    "ECCENTRICITY": 6.14e-05,
    "INCLINATION": 43.0004,
    "RA_OF_ASC_NODE": 5.1592,
    "ARG_OF_PERICENTER": 275.4328,
    "MEAN_ANOMALY": 84.6453,
    "EPHEMERIS_TYPE": 0,
    "CLASSIFICATION_TYPE": "U",
    "NORAD_CAT_ID": 59398,
    "ELEMENT_SET_NO": 999,
    "REV_AT_EPOCH": 9104,
    "BSTAR": 6.2154e-05,
    "MEAN_MOTION_DOT": 1.449e-05,
    "MEAN_MOTION_DDOT": 0.0,
    "TLE_LINE1": "1 59398U 24064A   25315.16716621  .00001449  00000+0  62154-4 0  9995",
    "TLE_LINE2": "2 59398  43.0004   5.1592 0000614 275.4328  84.6453 15.27580764 91040",
    "COMMENT": "Grouped by shell and plane from TLE"
  },
  {
    "OBJECT_NAME": "STARLINK-31544",
    "OBJECT_ID": "24064B",
    "EPOCH": "2025-11-11T05:14:44.361600",
    "MEAN_MOTION": 15.27579372,
    "ECCENTRICITY": 7.83e-05,
    "INCLINATION": 42.9976,
    "RA_OF_ASC_NODE": 5.5405,
    "ARG_OF_PERICENTER": 250.7952,
    "MEAN_ANOMALY": 109.2814,
    "EPHEMERIS_TYPE": 0,
    "CLASSIFICATION_TYPE": "U",
    "NORAD_CAT_ID": 59399,
    "ELEMENT_SET_NO": 999,
    "REV_AT_EPOCH": 9110,
    "BSTAR": 0.00022909,
    "MEAN_MOTION_DOT": 6.047e-05,
    "MEAN_MOTION_DDOT": 0.0,
    "TLE_LINE1": "1 59399U 24064B   25315.21856900  .00006047  00000+0  22909-3 0  9999",
    "TLE_LINE2": "2 59399  42.9976   5.5405 0000783 250.7952 109.2814 15.27579372 91105",
    "COMMENT": "Grouped by shell and plane from TLE"
  },
  {
    "OBJECT_NAME": "STARLINK-31545",
    "OBJECT_ID": "24064C",
    "EPOCH": "2025-11-11T04:17:22.504416",
    "MEAN_MOTION": 15.27575137,
    "ECCENTRICITY": 0.0002823,
    "INCLINATION": 43.0036,
    "RA_OF_ASC_NODE": 5.2434,
    "ARG_OF_PERICENTER": 276.9663,
    "MEAN_ANOMALY": 83.0867,
    "EPHEMERIS_TYPE": 0,
    "CLASSIFICATION_TYPE": "U",
    "NORAD_CAT_ID": 59400,
    "ELEMENT_SET_NO": 999,
    "REV_AT_EPOCH": 9110,
    "BSTAR": 0.00019968,
    "MEAN_MOTION_DOT": 5.236e-05,
    "MEAN_MOTION_DDOT": 0.0,
    "TLE_LINE1": "1 59400U 24064C   25315.17873269  .00005236  00000+0  19968-3 0  9994",
    "TLE_LINE2": "2 59400  43.0036   5.2434 0002823 276.9663  83.0867 15.27575137 91104",
    "COMMENT": "Grouped by shell and plane from TLE"
  },
  {
    "OBJECT_NAME": "STARLINK-31507",
    "OBJECT_ID": "24064D",
    "EPOCH": "2025-11-11T04:26:37.495680",
    "MEAN_MOTION": 15.27588352,
    "ECCENTRICITY": 0.0001432,
    "INCLINATION": 43.003,
    "RA_OF_ASC_NODE": 5.2839,
    "ARG_OF_PERICENTER": 293.9802,
    "MEAN_ANOMALY": 66.0899,
    "EPHEMERIS_TYPE": 0,
    "CLASSIFICATION_TYPE": "U",
    "NORAD_CAT_ID": 59401,
    "ELEMENT_SET_NO": 999,
    "REV_AT_EPOCH": 9104,
    "BSTAR": 0.0,
    "MEAN_MOTION_DOT": -7.83e-06,
    "MEAN_MOTION_DDOT": 0.0,
    "TLE_LINE1": "1 59401U 24064D   25315.18515620 -.00000783  00000+0 -18939-4 0  9992",
    "TLE_LINE2": "2 59401  43.0030   5.2839 0001432 293.9802  66.0899 15.27588352 91049",
    "COMMENT": "Grouped by shell and plane from TLE"
  }
]